{"type": "FeatureCollection", "features": [{"type": "Feature", "properties": {"norad_id": 36828, "name": "BEIDOU-2 IGSO-1 (C06)", "group": "beidou", "lat": 31.964490175002073, "lon": -42.085073908070534, "alt_km": 35730.61992757695, "timestamp": "2025-12-14T07:33:19.742200+00:00", "meta": {"OBJECT_NAME": "BEIDOU-2 IGSO-1 (C06)", "OBJECT_ID": "2010-036A", "EPOCH": "2025-12-13T10:31:52.529952", "MEAN_MOTION": 1.00275912, "ECCENTRICITY": 0.00512352, "INCLINATION": 54.2869, "RA_OF_ASC_NODE": 164.6409, "ARG_OF_PERICENTER": 215.8264, "MEAN_ANOMALY": 327.7653, "EPHEMERIS_TYPE": 0, "CLASSIFICATION_TYPE": "U", "NORAD_CAT_ID": 36828, "ELEMENT_SET_NO": 999, "REV_AT_EPOCH": 5623, "BSTAR": 0, "MEAN_MOTION_DOT": -3.2e-07, "MEAN_MOTION_DDOT": 0}, "tle": {"line1": "1 36828U 10036A   25347.43880243 -.00000032  00000+0  00000+0 0  9994", "line2": "2 36828  54.2869 164.6409 0051235 215.8264 327.7653  1.00275912 56233"}}, "geometry": {"type": "Point", "coordinates": [-42.085073908070534, 31.964490175002073]}}, {"type": "Feature", "properties": {"norad_id": 37210, "name": "BEIDOU-2 G4 (C04)", "group": "beidou", "lat": -3.046167697165605, "lon": -3.215764802766424, "alt_km": 35790.81319218808, "timestamp": "2025-12-14T07:33:19.742224+00:00", "meta": {"OBJECT_NAME": "BEIDOU-2 G4 (C04)", "OBJECT_ID": "2010-057A", "EPOCH": "2025-12-13T14:12:38.887200", "MEAN_MOTION": 1.00271675, "ECCENTRICITY": 0.00107835, "INCLINATION": 3.187, "RA_OF_ASC_NODE": 69.937, "ARG_OF_PERICENTER": 191.3943, "MEAN_ANOMALY": 194.4276, "EPHEMERIS_TYPE": 0, "CLASSIFICATION_TYPE": "U", "NORAD_CAT_ID": 37210, "ELEMENT_SET_NO": 999, "REV_AT_EPOCH": 5543, "BSTAR": 0, "MEAN_MOTION_DOT": -9.7e-07, "MEAN_MOTION_DDOT": 0}, "tle": {"line1": "1 37210U 10057A   25347.59211675 -.00000097  00000+0  00000+0 0  9998", "line2": "2 37210   3.1870  69.9370 0010783 191.3943 194.4276  1.00271675 55436"}}, "geometry": {"type": "Point", "coordinates": [-3.215764802766424, -3.046167697165605]}}, {"type": "Feature", "properties": {"norad_id": 37256, "name": "BEIDOU-2 IGSO-2 (C07)", "group": "beidou", "lat": 21.899350100695102, "lon": -64.6150300970135, "alt_km": 35986.36680706903, "timestamp": "2025-12-14T07:33:19.742240+00:00", "meta": {"OBJECT_NAME": "BEIDOU-2 IGSO-2 (C07)", "OBJECT_ID": "2010-068A", "EPOCH": "2025-12-03T17:22:36.027840", "MEAN_MOTION": 1.0028872, "ECCENTRICITY": 0.00492449, "INCLINATION": 47.9042, "RA_OF_ASC_NODE": 274.2614, "ARG_OF_PERICENTER": 216.1411, "MEAN_ANOMALY": 310.24, "EPHEMERIS_TYPE": 0, "CLASSIFICATION_TYPE": "U", "NORAD_CAT_ID": 37256, "ELEMENT_SET_NO": 999, "REV_AT_EPOCH": 5483, "BSTAR": 0, "MEAN_MOTION_DOT": -2.25e-06, "MEAN_MOTION_DDOT": 0}, "tle": {"line1": "1 37256U 10068A   25337.72402810 -.00000225  00000+0  00000+0 0  9990", "line2": "2 37256  47.9042 274.2614 0049244 216.1411 310.2400  1.00288720 54834"}}, "geometry": {"type": "Point", "coordinates": [-64.6150300970135, 21.899350100695102]}}, {"type": "Feature", "properties": {"norad_id": 37384, "name": "BEIDOU-2 IGSO-3 (C08)", "group": "beidou", "lat": -61.256962547471936, "lon": -63.75876349136932, "alt_km": 35753.60784606216, "timestamp": "2025-12-14T07:33:19.742256+00:00", "meta": {"OBJECT_NAME": "BEIDOU-2 IGSO-3 (C08)", "OBJECT_ID": "2011-013A", "EPOCH": "2025-12-13T13:58:02.786016", "MEAN_MOTION": 1.00270696, "ECCENTRICITY": 0.00354199, "INCLINATION": 62.1449, "RA_OF_ASC_NODE": 41.9072, "ARG_OF_PERICENTER": 187.5637, "MEAN_ANOMALY": 170.0888, "EPHEMERIS_TYPE": 0, "CLASSIFICATION_TYPE": "U", "NORAD_CAT_ID": 37384, "ELEMENT_SET_NO": 999, "REV_AT_EPOCH": 5379, "BSTAR": 0, "MEAN_MOTION_DOT": -1.97e-06, "MEAN_MOTION_DDOT": 0}, "tle": {"line1": "1 37384U 11013A   25347.58197669 -.00000197  00000+0  00000+0 0  9999", "line2": "2 37384  62.1449  41.9072 0035419 187.5637 170.0888  1.00270696 53792"}}, "geometry": {"type": "Point", "coordinates": [-63.75876349136932, -61.256962547471936]}}, {"type": "Feature", "properties": {"norad_id": 37763, "name": "BEIDOU-2 IGSO-4 (C09)", "group": "beidou", "lat": 43.63527023426493, "lon": -55.46509934922605, "alt_km": 35966.414512938376, "timestamp": "2025-12-14T07:33:19.742268+00:00", "meta": {"OBJECT_NAME": "BEIDOU-2 IGSO-4 (C09)", "OBJECT_ID": "2011-038A", "EPOCH": "2025-12-10T12:04:03.489024", "MEAN_MOTION": 1.00284678, "ECCENTRICITY": 0.01490344, "INCLINATION": 54.5829, "RA_OF_ASC_NODE": 167.3658, "ARG_OF_PERICENTER": 230.2355, "MEAN_ANOMALY": 317.2212, "EPHEMERIS_TYPE": 0, "CLASSIFICATION_TYPE": "U", "NORAD_CAT_ID": 37763, "ELEMENT_SET_NO": 999, "REV_AT_EPOCH": 5275, "BSTAR": 0, "MEAN_MOTION_DOT": 3.6e-07, "MEAN_MOTION_DDOT": 0}, "tle": {"line1": "1 37763U 11038A   25344.50281816  .00000036  00000+0  00000+0 0  9995", "line2": "2 37763  54.5829 167.3658 0149034 230.2355 317.2212  1.00284678 52751"}}, "geometry": {"type": "Point", "coordinates": [-55.46509934922605, 43.63527023426493]}}, {"type": "Feature", "properties": {"norad_id": 37948, "name": "BEIDOU-2 IGSO-5 (C10)", "group": "beidou", "lat": 12.0888639052216, "lon": -75.09072816784735, "alt_km": 36195.84836497033, "timestamp": "2025-12-14T07:33:19.742281+00:00", "meta": {"OBJECT_NAME": "BEIDOU-2 IGSO-5 (C10)", "OBJECT_ID": "2011-073A", "EPOCH": "2025-12-12T18:24:47.608416", "MEAN_MOTION": 1.00291151, "ECCENTRICITY": 0.01101752, "INCLINATION": 48.0199, "RA_OF_ASC_NODE": 273.857, "ARG_OF_PERICENTER": 222.308, "MEAN_ANOMALY": 314.7254, "EPHEMERIS_TYPE": 0, "CLASSIFICATION_TYPE": "U", "NORAD_CAT_ID": 37948, "ELEMENT_SET_NO": 999, "REV_AT_EPOCH": 5126, "BSTAR": 0, "MEAN_MOTION_DOT": -2.21e-06, "MEAN_MOTION_DDOT": 0}, "tle": {"line1": "1 37948U 11073A   25346.76721769 -.00000221  00000+0  00000+0 0  9992", "line2": "2 37948  48.0199 273.8570 0110175 222.3080 314.7254  1.00291151 51268"}}, "geometry": {"type": "Point", "coordinates": [-75.09072816784735, 12.0888639052216]}}, {"type": "Feature", "properties": {"norad_id": 38091, "name": "BEIDOU-2 G5 (C05)", "group": "beidou", "lat": -0.2685464003622672, "lon": -104.7289377229398, "alt_km": 35746.13381659342, "timestamp": "2025-12-14T07:33:19.742295+00:00", "meta": {"OBJECT_NAME": "BEIDOU-2 G5 (C05)", "OBJECT_ID": "2012-008A", "EPOCH": "2025-12-13T15:26:31.812000", "MEAN_MOTION": 1.00276026, "ECCENTRICITY": 0.00125671, "INCLINATION": 3.1118, "RA_OF_ASC_NODE": 70.7084, "ARG_OF_PERICENTER": 227.8926, "MEAN_ANOMALY": 74.4079, "EPHEMERIS_TYPE": 0, "CLASSIFICATION_TYPE": "U", "NORAD_CAT_ID": 38091, "ELEMENT_SET_NO": 999, "REV_AT_EPOCH": 5050, "BSTAR": 0, "MEAN_MOTION_DOT": 7e-07, "MEAN_MOTION_DDOT": 0}, "tle": {"line1": "1 38091U 12008A   25347.64342375  .00000070  00000+0  00000+0 0  9992", "line2": "2 38091   3.1118  70.7084 0012567 227.8926  74.4079  1.00276026 50505"}}, "geometry": {"type": "Point", "coordinates": [-104.7289377229398, -0.2685464003622672]}}, {"type": "Feature", "properties": {"norad_id": 38250, "name": "BEIDOU-2 M3 (C11)", "group": "beidou", "lat": -52.05695024673501, "lon": -168.70510851568437, "alt_km": 21470.91439878902, "timestamp": "2025-12-14T07:33:19.742320+00:00", "meta": {"OBJECT_NAME": "BEIDOU-2 M3 (C11)", "OBJECT_ID": "2012-018A", "EPOCH": "2025-12-12T20:44:25.859616", "MEAN_MOTION": 1.86229754, "ECCENTRICITY": 0.00243187, "INCLINATION": 55.9198, "RA_OF_ASC_NODE": 311.1526, "ARG_OF_PERICENTER": 274.2431, "MEAN_ANOMALY": 85.469, "EPHEMERIS_TYPE": 0, "CLASSIFICATION_TYPE": "U", "NORAD_CAT_ID": 38250, "ELEMENT_SET_NO": 999, "REV_AT_EPOCH": 9247, "BSTAR": 0, "MEAN_MOTION_DOT": -9.2e-07, "MEAN_MOTION_DDOT": 0}, "tle": {"line1": "1 38250U 12018A   25346.86418819 -.00000092  00000+0  00000+0 0  9995", "line2": "2 38250  55.9198 311.1526 0024318 274.2431  85.4690  1.86229754 92475"}}, "geometry": {"type": "Point", "coordinates": [-168.70510851568437, -52.05695024673501]}}, {"type": "Feature", "properties": {"norad_id": 38251, "name": "BEIDOU-2 M4 (C12)", "group": "beidou", "lat": -46.913371512631834, "lon": -96.24511149779157, "alt_km": 21493.088688955497, "timestamp": "2025-12-14T07:33:19.742347+00:00", "meta": {"OBJECT_NAME": "BEIDOU-2 M4 (C12)", "OBJECT_ID": "2012-018B", "EPOCH": "2025-12-13T07:59:48.422112", "MEAN_MOTION": 1.86229462, "ECCENTRICITY": 0.00154528, "INCLINATION": 55.8208, "RA_OF_ASC_NODE": 310.3658, "ARG_OF_PERICENTER": 277.4494, "MEAN_ANOMALY": 82.3644, "EPHEMERIS_TYPE": 0, "CLASSIFICATION_TYPE": "U", "NORAD_CAT_ID": 38251, "ELEMENT_SET_NO": 999, "REV_AT_EPOCH": 9248, "BSTAR": 0, "MEAN_MOTION_DOT": -9.5e-07, "MEAN_MOTION_DDOT": 0}, "tle": {"line1": "1 38251U 12018B   25347.33319933 -.00000095  00000+0  00000+0 0  9999", "line2": "2 38251  55.8208 310.3658 0015452 277.4494  82.3644  1.86229462 92489"}}, "geometry": {"type": "Point", "coordinates": [-96.24511149779157, -46.913371512631834]}}, {"type": "Feature", "properties": {"norad_id": 38775, "name": "BEIDOU-2 M6 (C14)", "group": "beidou", "lat": 38.22161631782254, "lon": -142.52792378519385, "alt_km": 21549.657945348157, "timestamp": "2025-12-14T07:33:19.742364+00:00", "meta": {"OBJECT_NAME": "BEIDOU-2 M6 (C14)", "OBJECT_ID": "2012-050B", "EPOCH": "2025-12-11T10:23:51.015840", "MEAN_MOTION": 1.86230797, "ECCENTRICITY": 0.00111593, "INCLINATION": 56.3773, "RA_OF_ASC_NODE": 69.1107, "ARG_OF_PERICENTER": 344.6089, "MEAN_ANOMALY": 15.3783, "EPHEMERIS_TYPE": 0, "CLASSIFICATION_TYPE": "U", "NORAD_CAT_ID": 38775, "ELEMENT_SET_NO": 999, "REV_AT_EPOCH": 8981, "BSTAR": 0, "MEAN_MOTION_DOT": -6.3e-07, "MEAN_MOTION_DDOT": 0}, "tle": {"line1": "1 38775U 12050B   25345.43322935 -.00000063  00000+0  00000+0 0  9996", "line2": "2 38775  56.3773  69.1107 0011159 344.6089  15.3783  1.86230797 89814"}}, "geometry": {"type": "Point", "coordinates": [-142.52792378519385, 38.22161631782254]}}]}